start=new Date('2021-11-26T00:00:00.000Z').valueOf();
sats=[{"OBJECT_ID":"2021-024AV","OBJECT_TYPE":"PAYLOAD","MEAN_MOTION":"15.06407076","MEAN_ANOMALY":"117.0787","CENTER_NAME":"EARTH","TIME_SYSTEM":"UTC","NORAD_CAT_ID":"48020","EPOCH":"2021-11-25T20:00:01.000224","MEAN_ELEMENT_THEORY":"SGP4","LAUNCH_DATE":"2021-03-24","CLASSIFICATION_TYPE":"U","GP_ID":"190492725","PERIOD":"95.592","INCLINATION":"53.0535","EPHEMERIS_TYPE":"0","COUNTRY_CODE":"US","PERIAPSIS":"546.062","SITE":"AFETR","SEMIMAJOR_AXIS":"6925.327","APOAPSIS":"548.321","DECAY_DATE":null,"REV_AT_EPOCH":"358","MEAN_MOTION_DOT":"0.00001377","TLE_LINE1":"1 48020U 21024AV  21329.83334491  .00001377  00000-0  11130-3 0  9992","MEAN_MOTION_DDOT":"0.0000000000000","TLE_LINE2":"2 48020  53.0535  91.5183 0001631  75.1942 117.0787 15.06407076  3586","ELEMENT_SET_NO":"999","RCS_SIZE":"LARGE","RA_OF_ASC_NODE":"91.5183","ECCENTRICITY":"0.00016310","REF_FRAME":"TEME","OBJECT_NAME":"STARLINK-2294","FILE":"3224126","BSTAR":"0.00011130000000","ARG_OF_PERICENTER":"75.1942"},{"APOAPSIS":"548.334","SEMIMAJOR_AXIS":"6925.342","SITE":"AFETR","PERIAPSIS":"546.081","EPHEMERIS_TYPE":"0","COUNTRY_CODE":"US","CLASSIFICATION_TYPE":"U","INCLINATION":"53.0571","PERIOD":"95.592","GP_ID":"190493975","NORAD_CAT_ID":"48021","TIME_SYSTEM":"UTC","MEAN_ELEMENT_THEORY":"SGP4","LAUNCH_DATE":"2021-03-24","EPOCH":"2021-11-25T15:34:45.072192","MEAN_ANOMALY":"282.0455","MEAN_MOTION":"15.06402019","CENTER_NAME":"EARTH","OBJECT_ID":"2021-024AW","OBJECT_TYPE":"PAYLOAD","ARG_OF_PERICENTER":"78.0716","FILE":"3224126","BSTAR":"-0.00001352100000","REF_FRAME":"TEME","OBJECT_NAME":"STARLINK-2301","ECCENTRICITY":"0.00016270","MEAN_MOTION_DDOT":"0.0000000000000","ELEMENT_SET_NO":"999","RCS_SIZE":"LARGE","RA_OF_ASC_NODE":"97.3447","TLE_LINE2":"2 48021  53.0571  97.3447 0001627  78.0716 282.0455 15.06402019 39531","TLE_LINE1":"1 48021U 21024AW  21329.64913278 -.00000483  00000-0 -13521-4 0  9994","MEAN_MOTION_DOT":"-0.00000483","REV_AT_EPOCH":"3953","DECAY_DATE":null},{"SITE":"AFETR","SEMIMAJOR_AXIS":"6925.385","APOAPSIS":"548.499","COUNTRY_CODE":"US","EPHEMERIS_TYPE":"0","PERIAPSIS":"546.001","EPOCH":"2021-11-25T18:47:08.799936","LAUNCH_DATE":"2021-03-24","MEAN_ELEMENT_THEORY":"SGP4","TIME_SYSTEM":"UTC","NORAD_CAT_ID":"48022","GP_ID":"190494226","PERIOD":"95.593","INCLINATION":"53.0535","CLASSIFICATION_TYPE":"U","OBJECT_TYPE":"PAYLOAD","OBJECT_ID":"2021-024AX","CENTER_NAME":"EARTH","MEAN_MOTION":"15.06388076","MEAN_ANOMALY":"274.5323","BSTAR":"0.00006781700000","FILE":"3224126","ARG_OF_PERICENTER":"85.5871","ECCENTRICITY":"0.00018030","OBJECT_NAME":"STARLINK-2298","REF_FRAME":"TEME","TLE_LINE1":"1 48022U 21024AX  21329.78274074  .00000728  00000-0  67817-4 0  9991","TLE_LINE2":"2 48022  53.0535 156.7630 0001803  85.5871 274.5323 15.06388076 38767","RA_OF_ASC_NODE":"156.7630","RCS_SIZE":"LARGE","ELEMENT_SET_NO":"999","MEAN_MOTION_DDOT":"0.0000000000000","DECAY_DATE":null,"REV_AT_EPOCH":"3876","MEAN_MOTION_DOT":"0.00000728"},{"ARG_OF_PERICENTER":"77.3239","BSTAR":"0.00006194700000","FILE":"3224126","OBJECT_NAME":"STARLINK-2292","REF_FRAME":"TEME","ECCENTRICITY":"0.00019600","TLE_LINE2":"2 48023  53.0542 156.6792 0001960  77.3239 282.7969 15.06387465 38763","RA_OF_ASC_NODE":"156.6792","RCS_SIZE":"LARGE","ELEMENT_SET_NO":"999","MEAN_MOTION_DDOT":"0.0000000000000","TLE_LINE1":"1 48023U 21024AY  21329.79843411  .00000641  00000-0  61947-4 0  9992","MEAN_MOTION_DOT":"0.00000641","REV_AT_EPOCH":"3876","DECAY_DATE":null,"SITE":"AFETR","SEMIMAJOR_AXIS":"6925.387","APOAPSIS":"548.609","PERIAPSIS":"545.895","COUNTRY_CODE":"US","EPHEMERIS_TYPE":"0","GP_ID":"190492974","PERIOD":"95.593","INCLINATION":"53.0542","CLASSIFICATION_TYPE":"U","EPOCH":"2021-11-25T19:09:44.707104","LAUNCH_DATE":"2021-03-24","MEAN_ELEMENT_THEORY":"SGP4","TIME_SYSTEM":"UTC","NORAD_CAT_ID":"48023","CENTER_NAME":"EARTH","MEAN_MOTION":"15.06387465","MEAN_ANOMALY":"282.7969","OBJECT_ID":"2021-024AY","OBJECT_TYPE":"PAYLOAD"},{"ECCENTRICITY":"0.00013450","REF_FRAME":"TEME","OBJECT_NAME":"STARLINK-2302","FILE":"3224126","BSTAR":"0.00240160000000","ARG_OF_PERICENTER":"47.6987","DECAY_DATE":null,"MEAN_MOTION_DOT":"0.00489976","REV_AT_EPOCH":"368","TLE_LINE1":"1 48024U 21024AZ  21329.83334491  .00489976  00000-0  24016-2 0  9997","MEAN_MOTION_DDOT":"0.0000000000000","TLE_LINE2":"2 48024  53.0543  59.2455 0001345  47.6987 101.2352 15.80375464  3688","RA_OF_ASC_NODE":"59.2455","RCS_SIZE":"LARGE","ELEMENT_SET_NO":"999","EPHEMERIS_TYPE":"0","COUNTRY_CODE":"US","PERIAPSIS":"328.478","SEMIMAJOR_AXIS":"6707.515","SITE":"AFETR","APOAPSIS":"330.282","OBJECT_TYPE":"PAYLOAD","OBJECT_ID":"2021-024AZ","MEAN_MOTION":"15.80375464","MEAN_ANOMALY":"101.2352","CENTER_NAME":"EARTH","TIME_SYSTEM":"UTC","NORAD_CAT_ID":"48024","EPOCH":"2021-11-25T20:00:01.000224","LAUNCH_DATE":"2021-03-24","MEAN_ELEMENT_THEORY":"SGP4","CLASSIFICATION_TYPE":"U","GP_ID":"190493224","PERIOD":"91.118","INCLINATION":"53.0543"},{"TLE_LINE1":"1 48025U 21024BA  21329.83334491  .00483160  00000-0  23693-2 0  9997","TLE_LINE2":"2 48025  53.0543  59.2414 0000939 358.6174 151.0699 15.80382373  3689","RCS_SIZE":"LARGE","RA_OF_ASC_NODE":"59.2414","ELEMENT_SET_NO":"999","MEAN_MOTION_DDOT":"0.0000000000000","DECAY_DATE":null,"MEAN_MOTION_DOT":"0.00483160","REV_AT_EPOCH":"368","BSTAR":"0.00236930000000","FILE":"3224126","ARG_OF_PERICENTER":"358.6174","ECCENTRICITY":"0.00009390","OBJECT_NAME":"STARLINK-2318","REF_FRAME":"TEME","EPOCH":"2021-11-25T20:00:01.000224","MEAN_ELEMENT_THEORY":"SGP4","LAUNCH_DATE":"2021-03-24","TIME_SYSTEM":"UTC","NORAD_CAT_ID":"48025","PERIOD":"91.117","GP_ID":"190493477","INCLINATION":"53.0543","CLASSIFICATION_TYPE":"U","OBJECT_ID":"2021-024BA","OBJECT_TYPE":"PAYLOAD","CENTER_NAME":"EARTH","MEAN_MOTION":"15.80382373","MEAN_ANOMALY":"151.0699","SITE":"AFETR","SEMIMAJOR_AXIS":"6707.495","APOAPSIS":"329.990","COUNTRY_CODE":"US","EPHEMERIS_TYPE":"0","PERIAPSIS":"328.731"},{"ARG_OF_PERICENTER":"82.6194","BSTAR":"0.00005390900000","FILE":"3224126","OBJECT_NAME":"STARLINK-2278","REF_FRAME":"TEME","ECCENTRICITY":"0.00018620","TLE_LINE2":"2 48026  53.0368 162.1568 0001862  82.6194 277.5007 15.06385189 38626","RA_OF_ASC_NODE":"162.1568","RCS_SIZE":"LARGE","ELEMENT_SET_NO":"999","MEAN_MOTION_DDOT":"0.0000000000000","TLE_LINE1":"1 48026U 21024BB  21329.71134512  .00000521  00000-0  53909-4 0  9998","MEAN_MOTION_DOT":"0.00000521","REV_AT_EPOCH":"3862","DECAY_DATE":null,"SITE":"AFETR","SEMIMAJOR_AXIS":"6925.394","APOAPSIS":"548.548","PERIAPSIS":"545.969","COUNTRY_CODE":"US","EPHEMERIS_TYPE":"0","PERIOD":"95.593","GP_ID":"190493728","INCLINATION":"53.0368","CLASSIFICATION_TYPE":"U","EPOCH":"2021-11-25T17:04:20.218368","MEAN_ELEMENT_THEORY":"SGP4","LAUNCH_DATE":"2021-03-24","TIME_SYSTEM":"UTC","NORAD_CAT_ID":"48026","CENTER_NAME":"EARTH","MEAN_MOTION":"15.06385189","MEAN_ANOMALY":"277.5007","OBJECT_TYPE":"PAYLOAD","OBJECT_ID":"2021-024BB"},{"CENTER_NAME":"EARTH","MEAN_ANOMALY":"273.3548","MEAN_MOTION":"15.06391125","OBJECT_TYPE":"PAYLOAD","OBJECT_ID":"2021-024BC","INCLINATION":"53.0547","PERIOD":"95.593","GP_ID":"190492476","CLASSIFICATION_TYPE":"U","LAUNCH_DATE":"2021-03-24","MEAN_ELEMENT_THEORY":"SGP4","EPOCH":"2021-11-25T17:42:08.530272","NORAD_CAT_ID":"48027","TIME_SYSTEM":"UTC","PERIAPSIS":"545.919","COUNTRY_CODE":"US","EPHEMERIS_TYPE":"0","APOAPSIS":"548.563","SEMIMAJOR_AXIS":"6925.376","SITE":"AFETR","REV_AT_EPOCH":"3897","MEAN_MOTION_DOT":"-0.00001227","DECAY_DATE":null,"RA_OF_ASC_NODE":"136.9576","RCS_SIZE":"LARGE","ELEMENT_SET_NO":"999","TLE_LINE2":"2 48027  53.0547 136.9576 0001909  86.7660 273.3548 15.06391125 38978","MEAN_MOTION_DDOT":"0.0000000000000","TLE_LINE1":"1 48027U 21024BC  21329.73759873 -.00001227  00000-0 -63478-4 0  9992","OBJECT_NAME":"STARLINK-2300","REF_FRAME":"TEME","ECCENTRICITY":"0.00019090","ARG_OF_PERICENTER":"86.7660","BSTAR":"-0.00006347800000","FILE":"3224126"},{"REF_FRAME":"TEME","OBJECT_NAME":"STARLINK-2264","ECCENTRICITY":"0.00019510","ARG_OF_PERICENTER":"96.3443","FILE":"3224126","BSTAR":"0.00106390000000","MEAN_MOTION_DOT":"0.00015594","REV_AT_EPOCH":"358","DECAY_DATE":null,"MEAN_MOTION_DDOT":"0.0000000000000","ELEMENT_SET_NO":"999","RCS_SIZE":"LARGE","RA_OF_ASC_NODE":"91.5222","TLE_LINE2":"2 48028  53.0553  91.5222 0001951  96.3443 355.9650 15.06383962  3583","TLE_LINE1":"1 48028U 21024BD  21329.83334491  .00015594  00000-0  10639-2 0  9998","PERIAPSIS":"545.912","EPHEMERIS_TYPE":"0","COUNTRY_CODE":"US","APOAPSIS":"548.614","SITE":"AFETR","SEMIMAJOR_AXIS":"6925.398","MEAN_ANOMALY":"355.9650","MEAN_MOTION":"15.06383962","CENTER_NAME":"EARTH","OBJECT_TYPE":"PAYLOAD","OBJECT_ID":"2021-024BD","CLASSIFICATION_TYPE":"U","INCLINATION":"53.0553","PERIOD":"95.593","GP_ID":"190492726","NORAD_CAT_ID":"48028","TIME_SYSTEM":"UTC","LAUNCH_DATE":"2021-03-24","MEAN_ELEMENT_THEORY":"SGP4","EPOCH":"2021-11-25T20:00:01.000224"},{"TLE_LINE1":"1 48029U 21024BE  21329.77630059  .00000713  00000-0  66786-4 0  9994","TLE_LINE2":"2 48029  53.0554 156.7993 0002037  83.8982 276.2239 15.06405355 38766","RCS_SIZE":"LARGE","RA_OF_ASC_NODE":"156.7993","ELEMENT_SET_NO":"999","MEAN_MOTION_DDOT":"0.0000000000000","DECAY_DATE":null,"MEAN_MOTION_DOT":"0.00000713","REV_AT_EPOCH":"3876","BSTAR":"0.00006678600000","FILE":"3224126","ARG_OF_PERICENTER":"83.8982","ECCENTRICITY":"0.00020370","OBJECT_NAME":"STARLINK-2299","REF_FRAME":"TEME","EPOCH":"2021-11-25T18:37:52.370976","LAUNCH_DATE":"2021-03-24","MEAN_ELEMENT_THEORY":"SGP4","TIME_SYSTEM":"UTC","NORAD_CAT_ID":"48029","PERIOD":"95.592","GP_ID":"190493976","INCLINATION":"53.0554","CLASSIFICATION_TYPE":"U","OBJECT_TYPE":"PAYLOAD","OBJECT_ID":"2021-024BE","CENTER_NAME":"EARTH","MEAN_MOTION":"15.06405355","MEAN_ANOMALY":"276.2239","SEMIMAJOR_AXIS":"6925.332","SITE":"AFETR","APOAPSIS":"548.608","COUNTRY_CODE":"US","EPHEMERIS_TYPE":"0","PERIAPSIS":"545.786"}];
